{"type": "FeatureCollection", "features": [ {"type": "Feature", "properties": {"norad_id": 66927, "name": "STARLINK-35943", "group": "last-30-days", "lat": 48.45301634171143, "lon": 75.72167166973918, "alt_km": 320.84223001577084, "timestamp": "2025-12-19T04:59:47.032634+00:00", "meta": {"OBJECT_NAME": "STARLINK-35943", "OBJECT_ID": "2025-286C", "EPOCH": "2025-12-18T22:00:00.999936", "MEAN_MOTION": 15.81693726, "ECCENTRICITY": 0.00010055, "INCLINATION": 53.1565, "RA_OF_ASC_NODE": 19.3908, "ARG_OF_PERICENTER": 85.6069, "MEAN_ANOMALY": 123.3321, "EPHEMERIS_TYPE": 0, "CLASSIFICATION_TYPE": "U", "NORAD_CAT_ID": 66927, "ELEMENT_SET_NO": 999, "REV_AT_EPOCH": 298, "BSTAR": -0.0069932437, "MEAN_MOTION_DOT": -0.01266612, "MEAN_MOTION_DDOT": 0}, "tle": {"line1": "1 66927U 25286C   25352.91667824 -.01266612  00000+0 -69932-2 0  9999", "line2": "2 66927  53.1565  19.3908 0001005  85.6069 123.3321 15.81693726  2989"}}, "geometry": {"type": "Point", "coordinates": [75.72167166973918, 48.45301634171143]}}, {"type": "Feature", "properties": {"norad_id": 66928, "name": "STARLINK-35944", "group": "last-30-days", "lat": 46.50548425244752, "lon": 70.1516060443401, "alt_km": 321.2564859926015, "timestamp": "2025-12-19T04:59:47.032644+00:00", "meta": {"OBJECT_NAME": "STARLINK-35944", "OBJECT_ID": "2025-286D", "EPOCH": "2025-12-18T22:00:00.999936", "MEAN_MOTION": 15.81693335, "ECCENTRICITY": 8.599e-05, "INCLINATION": 53.1564, "RA_OF_ASC_NODE": 19.3994, "ARG_OF_PERICENTER": 85.9465, "MEAN_ANOMALY": 118.755, "EPHEMERIS_TYPE": 0, "CLASSIFICATION_TYPE": "U", "NORAD_CAT_ID": 66928, "ELEMENT_SET_NO": 999, "REV_AT_EPOCH": 298, "BSTAR": -0.0069296261, "MEAN_MOTION_DOT": -0.01256337, "MEAN_MOTION_DDOT": 0}, "tle": {"line1": "1 66928U 25286D   25352.91667824 -.01256337  00000+0 -69296-2 0  9996", "line2": "2 66928  53.1564  19.3994 0000859  85.9465 118.7550 15.81693335  2981"}}, "geometry": {"type": "Point", "coordinates": [70.1516060443401, 46.50548425244752]}}, {"type": "Feature", "properties": {"norad_id": 66929, "name": "STARLINK-36169", "group": "last-30-days", "lat": 49.36347520303445, "lon": 78.81639479655131, "alt_km": 320.78044658903764, "timestamp": "2025-12-19T04:59:47.032653+00:00", "meta": {"OBJECT_NAME": "STARLINK-36169", "OBJECT_ID": "2025-286E", "EPOCH": "2025-12-18T22:00:00.999936", "MEAN_MOTION": 15.81692137, "ECCENTRICITY": 9.259e-05, "INCLINATION": 53.1566, "RA_OF_ASC_NODE": 19.3859, "ARG_OF_PERICENTER": 73.8925, "MEAN_ANOMALY": 137.2812, "EPHEMERIS_TYPE": 0, "CLASSIFICATION_TYPE": "U", "NORAD_CAT_ID": 66929, "ELEMENT_SET_NO": 999, "REV_AT_EPOCH": 298, "BSTAR": -0.0070947432, "MEAN_MOTION_DOT": -0.01282665, "MEAN_MOTION_DDOT": 0}, "tle": {"line1": "1 66929U 25286E   25352.91667824 -.01282665  00000+0 -70947-2 0  9995", "line2": "2 66929  53.1566  19.3859 0000925  73.8925 137.2812 15.81692137  2981"}}, "geometry": {"type": "Point", "coordinates": [78.81639479655131, 49.36347520303445]}}, {"type": "Feature", "properties": {"norad_id": 66930, "name": "STARLINK-36206", "group": "last-30-days", "lat": 50.13049576371244, "lon": 81.78428455312773, "alt_km": 320.8078952419064, "timestamp": "2025-12-19T04:59:47.032666+00:00", "meta": {"OBJECT_NAME": "STARLINK-36206", "OBJECT_ID": "2025-286F", "EPOCH": "2025-12-18T22:00:00.999936", "MEAN_MOTION": 15.81693868, "ECCENTRICITY": 7.924e-05, "INCLINATION": 53.1564, "RA_OF_ASC_NODE": 19.3813, "ARG_OF_PERICENTER": 89.3832, "MEAN_ANOMALY": 123.855, "EPHEMERIS_TYPE": 0, "CLASSIFICATION_TYPE": "U", "NORAD_CAT_ID": 66930, "ELEMENT_SET_NO": 999, "REV_AT_EPOCH": 298, "BSTAR": -0.0070919059, "MEAN_MOTION_DOT": -0.0128223, "MEAN_MOTION_DDOT": 0}, "tle": {"line1": "1 66930U 25286F   25352.91667824 -.01282230  00000+0 -70919-2 0  9994", "line2": "2 66930  53.1564  19.3813 0000792  89.3832 123.8550 15.81693868  2984"}}, "geometry": {"type": "Point", "coordinates": [81.78428455312773, 50.13049576371244]}}, {"type": "Feature", "properties": {"norad_id": 66931, "name": "STARLINK-36130", "group": "last-30-days", "lat": 50.882774511928616, "lon": 85.14999791731364, "alt_km": 320.6638738992315, "timestamp": "2025-12-19T04:59:47.032676+00:00", "meta": {"OBJECT_NAME": "STARLINK-36130", "OBJECT_ID": "2025-286G", "EPOCH": "2025-12-18T22:00:00.999936", "MEAN_MOTION": 15.81686294, "ECCENTRICITY": 8.509e-05, "INCLINATION": 53.1564, "RA_OF_ASC_NODE": 19.3768, "ARG_OF_PERICENTER": 79.7227, "MEAN_ANOMALY": 135.7942, "EPHEMERIS_TYPE": 0, "CLASSIFICATION_TYPE": "U", "NORAD_CAT_ID": 66931, "ELEMENT_SET_NO": 999, "REV_AT_EPOCH": 298, "BSTAR": -0.0071684901, "MEAN_MOTION_DOT": -0.01294028, "MEAN_MOTION_DDOT": 0}, "tle": {"line1": "1 66931U 25286G   25352.91667824 -.01294028  00000+0 -71685-2 0  9994", "line2": "2 66931  53.1564  19.3768 0000850  79.7227 135.7942 15.81686294  2982"}}, "geometry": {"type": "Point", "coordinates": [85.14999791731364, 50.882774511928616]}}, {"type": "Feature", "properties": {"norad_id": 66932, "name": "STARLINK-36177", "group": "last-30-days", "lat": 51.52340271219703, "lon": 88.55205660064715, "alt_km": 320.55712101487734, "timestamp": "2025-12-19T04:59:47.032688+00:00", "meta": {"OBJECT_NAME": "STARLINK-36177", "OBJECT_ID": "2025-286H", "EPOCH": "2025-12-18T22:00:00.999936", "MEAN_MOTION": 15.81671951, "ECCENTRICITY": 9.449e-05, "INCLINATION": 53.1562, "RA_OF_ASC_NODE": 19.3721, "ARG_OF_PERICENTER": 84.5373, "MEAN_ANOMALY": 133.2192, "EPHEMERIS_TYPE": 0, "CLASSIFICATION_TYPE": "U", "NORAD_CAT_ID": 66932, "ELEMENT_SET_NO": 999, "REV_AT_EPOCH": 298, "BSTAR": -0.0071605396, "MEAN_MOTION_DOT": -0.01292055, "MEAN_MOTION_DDOT": 0}, "tle": {"line1": "1 66932U 25286H   25352.91667824 -.01292055  00000+0 -71605-2 0  9995", "line2": "2 66932  53.1562  19.3721 0000944  84.5373 133.2192 15.81671951  2984"}}, "geometry": {"type": "Point", "coordinates": [88.55205660064715, 51.52340271219703]}}, {"type": "Feature", "properties": {"norad_id": 66933, "name": "STARLINK-36157", "group": "last-30-days", "lat": 52.05731635269079, "lon": 92.00398787594729, "alt_km": 320.55009827830145, "timestamp": "2025-12-19T04:59:47.032698+00:00", "meta": {"OBJECT_NAME": "STARLINK-36157", "OBJECT_ID": "2025-286J", "EPOCH": "2025-12-18T22:00:00.999936", "MEAN_MOTION": 15.81670504, "ECCENTRICITY": 8.666e-05, "INCLINATION": 53.1561, "RA_OF_ASC_NODE": 19.3676, "ARG_OF_PERICENTER": 82.7402, "MEAN_ANOMALY": 137.221, "EPHEMERIS_TYPE": 0, "CLASSIFICATION_TYPE": "U", "NORAD_CAT_ID": 66933, "ELEMENT_SET_NO": 999, "REV_AT_EPOCH": 298, "BSTAR": -0.0072283236, "MEAN_MOTION_DOT": -0.0130267, "MEAN_MOTION_DDOT": 0}, "tle": {"line1": "1 66933U 25286J   25352.91667824 -.01302670  00000+0 -72283-2 0  9994", "line2": "2 66933  53.1561  19.3676 0000866  82.7402 137.2210 15.81670504  2987"}}, "geometry": {"type": "Point", "coordinates": [92.00398787594729, 52.05731635269079]}}, {"type": "Feature", "properties": {"norad_id": 66934, "name": "STARLINK-36153", "group": "last-30-days", "lat": 52.49018100121639, "lon": 95.5511568393555, "alt_km": 320.5823446023578, "timestamp": "2025-12-19T04:59:47.032712+00:00", "meta": {"OBJECT_NAME": "STARLINK-36153", "OBJECT_ID": "2025-286K", "EPOCH": "2025-12-18T22:00:00.999936", "MEAN_MOTION": 15.81665953, "ECCENTRICITY": 7.803e-05, "INCLINATION": 53.1562, "RA_OF_ASC_NODE": 19.3626, "ARG_OF_PERICENTER": 84.8963, "MEAN_ANOMALY": 137.2856, "EPHEMERIS_TYPE": 0, "CLASSIFICATION_TYPE": "U", "NORAD_CAT_ID": 66934, "ELEMENT_SET_NO": 999, "REV_AT_EPOCH": 298, "BSTAR": -0.0072886141, "MEAN_MOTION_DOT": -0.01311899, "MEAN_MOTION_DDOT": 0}, "tle": {"line1": "1 66934U 25286K   25352.91667824 -.01311899  00000+0 -72886-2 0  9997", "line2": "2 66934  53.1562  19.3626 0000780  84.8963 137.2856 15.81665953  2982"}}, "geometry": {"type": "Point", "coordinates": [95.5511568393555, 52.49018100121639]}}, {"type": "Feature", "properties": {"norad_id": 66935, "name": "STARLINK-36127", "group": "last-30-days", "lat": 52.83668666541233, "lon": 99.46358440565929, "alt_km": 320.44342569169385, "timestamp": "2025-12-19T04:59:47.032724+00:00", "meta": {"OBJECT_NAME": "STARLINK-36127", "OBJECT_ID": "2025-286L", "EPOCH": "2025-12-18T22:00:00.999936", "MEAN_MOTION": 15.81639241, "ECCENTRICITY": 0.00010259, "INCLINATION": 53.1562, "RA_OF_ASC_NODE": 19.3577, "ARG_OF_PERICENTER": 93.1102, "MEAN_ANOMALY": 131.496, "EPHEMERIS_TYPE": 0, "CLASSIFICATION_TYPE": "U", "NORAD_CAT_ID": 66935, "ELEMENT_SET_NO": 999, "REV_AT_EPOCH": 298, "BSTAR": -0.0073048656, "MEAN_MOTION_DOT": -0.01313164, "MEAN_MOTION_DDOT": 0}, "tle": {"line1": "1 66935U 25286L   25352.91667824 -.01313164  00000+0 -73049-2 0  9997", "line2": "2 66935  53.1562  19.3577 0001025  93.1102 131.4960 15.81639241  2982"}}, "geometry": {"type": "Point", "coordinates": [99.46358440565929, 52.83668666541233]}}, {"type": "Feature", "properties": {"norad_id": 66936, "name": "STARLINK-36160", "group": "last-30-days", "lat": 53.03407782512144, "lon": 102.96256665876476, "alt_km": 320.5039269488916, "timestamp": "2025-12-19T04:59:47.032734+00:00", "meta": {"OBJECT_NAME": "STARLINK-36160", "OBJECT_ID": "2025-286M", "EPOCH": "2025-12-18T22:00:00.999936", "MEAN_MOTION": 15.81639485, "ECCENTRICITY": 8.753e-05, "INCLINATION": 53.1562, "RA_OF_ASC_NODE": 19.3536, "ARG_OF_PERICENTER": 76.3479, "MEAN_ANOMALY": 150.3755, "EPHEMERIS_TYPE": 0, "CLASSIFICATION_TYPE": "U", "NORAD_CAT_ID": 66936, "ELEMENT_SET_NO": 999, "REV_AT_EPOCH": 298, "BSTAR": -0.0073337595, "MEAN_MOTION_DOT": -0.01317637, "MEAN_MOTION_DDOT": 0}, "tle": {"line1": "1 66936U 25286M   25352.91667824 -.01317637  00000+0 -73338-2 0  9998", "line2": "2 66936  53.1562  19.3536 0000875  76.3479 150.3755 15.81639485  2982"}}, "geometry": {"type": "Point", "coordinates": [102.96256665876476, 53.03407782512144]}}]}